NORAD_CAT_ID,OBJECT_NAME,OBJECT_TYPE,EPOCH,MEAN_MOTION,ECCENTRICITY,INCLINATION,RA_OF_ASC_NODE,ARG_OF_PERICENTER,MEAN_ANOMALY,BSTAR,MEAN_MOTION_DOT,MEAN_MOTION_DDOT,TLE_LINE0,TLE_LINE1,TLE_LINE2,SEMIMAJOR_AXIS,PERIOD,APOGEE,PERIGEE,DECAYED
52622.0,STARLINK-4008,PAYLOAD,2024-08-01 11:17:15,15.08845704,0.0001229,53.2171,31.2769,87.3239,272.7894,0.00026193,3.884e-05,0.0,0 STARLINK-4008,1 52622U 22052AA  24214.47031398  .00003884  00000-0  26193-3 0  9993,2 52622  53.2171  31.2769 0001229  87.3239 272.7894 15.08845704122435,6917.863,95.437,540.578,538.878,0.0
52622.0,STARLINK-4008,PAYLOAD,2024-08-01 20:49:33,15.08865603,8.77e-05,53.2162,29.4886,87.5905,272.5188,0.00049439,7.595e-05,0.0,0 STARLINK-4008,1 52622U 22052AA  24214.86774331  .00007595  00000-0  49439-3 0  9998,2 52622  53.2162  29.4886 0000877  87.5905 272.5188 15.08865603122876,6917.802,95.436,540.274,539.06,0.0
52622.0,STARLINK-4008,PAYLOAD,2024-08-02 04:46:30,15.0883869,0.00022,53.2166,28.0064,80.6898,279.4342,0.00021286,3.101e-05,0.0,0 STARLINK-4008,1 52622U 22052AA  24215.19896046  .00003101  00000-0  21286-3 0  9992,2 52622  53.2166  28.0064 0002200  80.6898 279.4342 15.08838690122920,6917.884,95.438,541.271,538.227,0.0
52622.0,STARLINK-4008,PAYLOAD,2024-08-02 20:40:21,15.0884248,0.0001525,53.2162,25.0323,82.8416,277.275,0.00067765,0.00010514,0.0,0 STARLINK-4008,1 52622U 22052AA  24215.86135898  .00010514  00000-0  67765-3 0  9995,2 52622  53.2162  25.0323 0001525  82.8416 277.2750 15.08842480122640,6917.873,95.437,540.793,538.683,0.0
52622.0,STARLINK-4008,PAYLOAD,2024-08-03 04:37:17,15.08839825,0.0001596,53.2161,23.5455,81.3741,278.7432,0.0011735,0.00018437,0.0,0 STARLINK-4008,1 52622U 22052AA  24216.19256290  .00018437  00000-0  11735-2 0  9999,2 52622  53.2161  23.5455 0001596  81.3741 278.7432 15.08839825122698,6917.881,95.438,540.85,538.642,0.0
52622.0,STARLINK-4008,PAYLOAD,2024-08-03 20:31:08,15.08869181,0.0001539,53.2165,20.5711,81.5262,278.5905,0.0016638,0.00026312,0.0,0 STARLINK-4008,1 52622U 22052AA  24216.85495686  .00026312  00000-0  16638-2 0  9994,2 52622  53.2165  20.5711 0001539  81.5262 278.5905 15.08869181123176,6917.791,95.436,540.721,538.592,0.0
52622.0,STARLINK-4008,PAYLOAD,2024-08-04 04:28:03,15.0885776,0.0001567,53.2171,19.0832,95.7019,264.4152,0.00095942,0.00015022,0.0,0 STARLINK-4008,1 52622U 22052AA  24217.18615642  .00015022  00000-0  95942-3 0  9999,2 52622  53.2171  19.0832 0001567  95.7019 264.4152 15.08857760123222,6917.826,95.436,540.775,538.607,0.0
52622.0,STARLINK-4008,PAYLOAD,2024-08-04 10:49:36,15.08859151,0.0002253,53.2169,17.8952,89.9786,270.1464,0.001105,0.00017351,0.0,0 STARLINK-4008,1 52622U 22052AA  24217.45111748  .00017351  00000-0  11050-2 0  9991,2 52622  53.2169  17.8952 0002253  89.9786 270.1464 15.08859151122884,6917.822,95.436,541.245,538.128,0.0
52622.0,STARLINK-4008,PAYLOAD,2024-08-04 17:11:08,15.08864491,0.0001737,53.217,16.705,98.7446,261.3743,0.00084185,0.00013144,0.0,0 STARLINK-4008,1 52622U 22052AA  24217.71607255  .00013144  00000-0  84185-3 0  9999,2 52622  53.2170  16.7050 0001737  98.7446 261.3743 15.08864491123303,6917.806,95.436,540.872,538.469,0.0
52622.0,STARLINK-4008,PAYLOAD,2024-08-05 17:01:55,15.08859149,0.0001407,53.2173,12.244,70.8437,289.2707,0.0011161,0.00017529,0.0,0 STARLINK-4008,1 52622U 22052AA  24218.70967109  .00017529  00000-0  11161-2 0  9990,2 52622  53.2173  12.2440 0001407  70.8437 289.2707 15.08859149123454,6917.822,95.436,540.66,538.714,0.0
52622.0,STARLINK-4008,PAYLOAD,2024-08-06 13:41:56,15.08817476,0.0001327,53.2177,8.3788,75.5168,284.5971,5.842e-05,6.41e-06,0.0,0 STARLINK-4008,1 52622U 22052AA  24219.57079757  .00000641  00000-0  58420-4 0  9997,2 52622  53.2177   8.3788 0001327  75.5168 284.5971 15.08817476123204,6917.949,95.439,540.732,538.896,0.0
52622.0,STARLINK-4008,PAYLOAD,2024-08-06 16:52:43,15.08814827,0.0001281,53.2179,7.7844,85.5367,274.5772,0.00097248,0.00015212,0.0,0 STARLINK-4008,1 52622U 22052AA  24219.70328046  .00015212  00000-0  97248-3 0  9990,2 52622  53.2179   7.7844 0001281  85.5367 274.5772 15.08814827123602,6917.957,95.439,540.709,538.936,0.0
52622.0,STARLINK-4008,PAYLOAD,2024-08-07 16:43:30,15.08863837,0.0001345,53.2183,3.3258,86.3224,273.7922,0.0016554,0.00026173,0.0,0 STARLINK-4008,1 52622U 22052AA  24220.69688183  .00026173  00000-0  16554-2 0  9999,2 52622  53.2183   3.3258 0001345  86.3224 273.7922 15.08863837123759,6917.808,95.436,540.603,538.742,0.0
52622.0,STARLINK-4008,PAYLOAD,2024-08-08 13:23:31,15.08852472,0.0001377,53.218,359.4597,84.302,275.8129,0.0013659,0.00021525,0.0,0 STARLINK-4008,1 52622U 22052AA  24221.55800362  .00021525  00000-0  13659-2 0  9999,2 52622  53.2180 359.4597 0001377  84.3020 275.8129 15.08852472123502,6917.842,95.437,540.66,538.755,0.0
52622.0,STARLINK-4008,PAYLOAD,2024-08-08 16:34:17,15.08861299,0.0001453,53.2176,358.8646,78.4712,281.6443,0.0015517,0.00024508,0.0,0 STARLINK-4008,1 52622U 22052AA  24221.69048211  .00024508  00000-0  15517-2 0  9990,2 52622  53.2176 358.8646 0001453  78.4712 281.6443 15.08861299123907,6917.815,95.436,540.685,538.675,0.0
52622.0,STARLINK-4008,PAYLOAD,2024-08-09 02:06:37,15.08832494,0.0002173,53.2175,357.0804,64.9678,295.1539,0.0022413,0.00035556,0.0,0 STARLINK-4008,1 52622U 22052AA  24222.08792936  .00035556  00000-0  22413-2 0  9992,2 52622  53.2175 357.0804 0002173  64.9678 295.1539 15.08832494123961,6917.903,95.438,541.272,538.265,0.0
52622.0,STARLINK-4008,PAYLOAD,2024-08-09 13:14:20,15.08801169,0.0001724,53.2175,354.9973,63.4008,296.7161,0.0010041,0.00015711,0.0,0 STARLINK-4008,1 52622U 22052AA  24222.55162327  .00015711  00000-0  10041-2 0  9994,2 52622  53.2175 354.9973 0001724  63.4008 296.7161 15.08801169123655,6917.999,95.44,541.057,538.671,0.0
52622.0,STARLINK-4008,PAYLOAD,2024-08-09 18:00:29,15.08849495,0.000187,53.2171,354.1071,65.2985,294.8201,0.0047176,0.00075619,0.0,0 STARLINK-4008,1 52622U 22052AA  24222.75034469  .00075619  00000-0  47176-2 0  9993,2 52622  53.2171 354.1071 0001870  65.2985 294.8201 15.08849495124062,6917.851,95.437,541.01,538.423,0.0
52622.0,STARLINK-4008,PAYLOAD,2024-08-10 13:05:06,15.08902927,0.0001666,53.2175,350.5369,63.3383,296.778,0.0039816,0.00063763,0.0,0 STARLINK-4008,1 52622U 22052AA  24223.54521841  .00063763  00000-0  39816-2 0  9995,2 52622  53.2175 350.5369 0001666  63.3383 296.7780 15.08902927124186,6917.688,95.434,540.706,538.401,0.0
52622.0,STARLINK-4008,PAYLOAD,2024-08-10 14:40:29,15.08900401,0.0001597,53.2172,350.2395,74.3494,285.7674,0.0031877,0.00050895,0.0,0 STARLINK-4008,1 52622U 22052AA  24223.61145524  .00050895  00000-0  31877-2 0  9994,2 52622  53.2172 350.2395 0001597  74.3494 285.7674 15.08900401123811,6917.696,95.434,540.666,538.456,0.0
52622.0,STARLINK-4008,PAYLOAD,2024-08-10 17:51:15,15.08912357,0.0001572,53.2167,349.6459,71.6416,288.4747,0.0031213,0.00049838,0.0,0 STARLINK-4008,1 52622U 22052AA  24223.74392966  .00049838  00000-0  31213-2 0  9991,2 52622  53.2167 349.6459 0001572  71.6416 288.4747 15.08912357124214,6917.659,95.433,540.612,538.437,0.0
52622.0,STARLINK-4008,PAYLOAD,2024-08-11 01:48:10,15.08867499,0.0001382,53.2172,348.158,91.0323,269.0828,0.0033164,0.00052929,0.0,0 STARLINK-4008,1 52622U 22052AA  24224.07512621  .00052929  00000-0  33164-2 0  9992,2 52622  53.2172 348.1580 0001382  91.0323 269.0828 15.08867499124267,6917.796,95.436,540.617,538.705,0.0
52622.0,STARLINK-4008,PAYLOAD,2024-08-11 08:09:43,15.08873889,0.0003676,53.2165,346.9719,80.8513,279.2895,0.0025515,0.00040595,0.0,0 STARLINK-4008,1 52622U 22052AA  24224.34009156  .00040595  00000-0  25515-2 0  9993,2 52622  53.2165 346.9719 0003676  80.8513 279.2895 15.08873889124306,6917.777,95.435,542.185,537.099,0.0
52622.0,STARLINK-4008,PAYLOAD,2024-08-11 17:42:01,15.08880163,0.0002186,53.2166,345.1872,94.9884,265.1358,0.0018017,0.00028535,0.0,0 STARLINK-4008,1 52622U 22052AA  24224.73752013  .00028535  00000-0  18017-2 0  9992,2 52622  53.2166 345.1872 0002186  94.9884 265.1358 15.08880163124367,6917.758,95.435,541.135,538.11,0.0
52622.0,STARLINK-4008,PAYLOAD,2024-08-12 01:38:57,15.08847911,0.0003488,53.2174,343.6981,95.2052,264.9338,0.0006813,0.00010574,0.0,0 STARLINK-4008,1 52622U 22052AA  24225.06872560  .00010574  00000-0  68130-3 0  9995,2 52622  53.2174 343.6981 0003488  95.2052 264.9338 15.08847911124412,6917.856,95.437,542.134,537.308,0.0
52622.0,STARLINK-4008,PAYLOAD,2024-08-12 14:22:01,15.08885815,0.0001508,53.217,341.3193,105.8425,254.2734,0.0013361,0.00021067,0.0,0 STARLINK-4008,1 52622U 22052AA  24225.59862737  .00021067  00000-0  13361-2 0  9992,2 52622  53.2170 341.3193 0001508 105.8425 254.2734 15.08885815124115,6917.74,95.435,540.649,538.562,0.0
52622.0,STARLINK-4008,PAYLOAD,2024-08-12 17:32:47,15.08909163,0.0002308,53.2167,340.7233,103.1903,256.9347,0.0029444,0.00046975,0.0,0 STARLINK-4008,1 52622U 22052AA  24225.73110282  .00046975  00000-0  29444-2 0  9993,2 52622  53.2167 340.7233 0002308 103.1903 256.9347 15.08909163124516,6917.669,95.433,541.131,537.937,0.0
52622.0,STARLINK-4008,PAYLOAD,2024-08-12 19:08:09,15.08950367,0.0001882,53.2163,340.4285,101.707,258.4133,0.0059006,0.00095178,0.0,0 STARLINK-4008,1 52622U 22052AA  24225.79733796  .00095178  00000-0  59006-2 0  9996,2 52622  53.2163 340.4285 0001882 101.7070 258.4133 15.08950367124142,6917.543,95.431,540.71,538.106,0.0
52622.0,STARLINK-4008,PAYLOAD,2024-08-13 07:51:16,15.08795786,0.0002537,53.2136,338.0491,106.2022,253.925,0.0018377,0.00029045,0.0,0 STARLINK-4008,1 52622U 22052AA  24226.32727782  .00029045  00000-0  18377-2 0  9990,2 52622  53.2136 338.0491 0002537 106.2022 253.9250 15.08795786124602,6918.016,95.44,541.636,538.125,0.0
52622.0,STARLINK-4008,PAYLOAD,2024-08-13 14:12:50,15.0877437,7.36e-05,53.2112,336.8555,75.5556,284.5517,0.0015677,0.00024705,0.0,0 STARLINK-4008,1 52622U 22052AA  24226.59225003  .00024705  00000-0  15677-2 0  9996,2 52622  53.2112 336.8555 0000736  75.5556 284.5517 15.08774370124266,6918.081,95.442,540.455,539.437,0.0
